ONEWEB-0656             
1 55817U 23029X   24221.55960117  .00000092  00000+0  19504-3 0  9999
2 55817  87.9186  49.2097 0002383  97.8544 262.2860 13.20769624 71702
ONEWEB-0657             
1 55818U 23029Y   24221.57411841  .00000022  00000+0  23395-4 0  9994
2 55818  87.9109  79.8006 0002187 106.0361 254.1013 13.19723732 69535
ONEWEB-0658             
1 55819U 23029Z   24221.56937731  .00000069  00000+0  14003-3 0  9991
2 55819  87.9109  79.7367 0001133  81.0529 279.0732 13.19723884 69546
ONEWEB-0660             
1 55820U 23029AA  24221.60225359 -.00000172  00000+0 -49764-3 0  9993
2 55820  87.8923  64.4584 0001554  68.2710 291.8585 13.14501928 70389
ONEWEB-0661             
1 55821U 23029AB  24221.56102381  .00000180  00000+0  45024-3 0  9990
2 55821  87.8926  64.5342 0001703  68.8806 291.2505 13.14503721 70361
ONEWEB-0662             
1 55822U 23029AC  24221.59590395 -.00000319  00000+0 -89567-3 0  9996
2 55822  87.8924  64.5344 0001477  76.4802 283.6492 13.14503282 70419
ONEWEB-0663             
1 55823U 23029AD  24221.55181724  .00000080  00000+0  16531-3 0  9999
2 55823  87.9186  49.2716 0001454  77.4823 282.6473 13.20793965 71698
ONEWEB-0664             
1 55824U 23029AE  24221.54696256  .00000090  00000+0  18958-3 0  9996
2 55824  87.9186  49.2865 0002046  75.5939 284.5421 13.20773012 71694
